NORAD_CAT_ID,OBJECT_NAME,OBJECT_TYPE,EPOCH,MEAN_MOTION,ECCENTRICITY,INCLINATION,RA_OF_ASC_NODE,ARG_OF_PERICENTER,MEAN_ANOMALY,BSTAR,MEAN_MOTION_DOT,MEAN_MOTION_DDOT,TLE_LINE0,TLE_LINE1,TLE_LINE2,SEMIMAJOR_AXIS,PERIOD,APOGEE,PERIGEE,DECAYED
49427.0,STARLINK-3131,PAYLOAD,2023-01-15 04:58:46,15.08847081,0.0001609,53.2153,349.3552,90.9623,269.1553,0.0002712,4.032e-05,0.0,0 STARLINK-3131,1 49427U 21104V   23015.20748251  .00004032  00000-0  27120-3 0  9998,2 49427  53.2153 349.3552 0001609  90.9623 269.1553 15.08847081 66198,6917.859,95.437,540.837,538.611,0.0
49427.0,STARLINK-3131,PAYLOAD,2023-01-15 08:09:32,15.08855798,0.000167,53.215,348.7602,89.6375,270.4809,0.00040607,6.183e-05,0.0,0 STARLINK-3131,1 49427U 21104V   23015.33995945  .00006183  00000-0  40607-3 0  9990,2 49427  53.2150 348.7602 0001670  89.6375 270.4809 15.08855798 65126,6917.831999999999,95.437,540.852,538.5419999999999,0.0
49427.0,STARLINK-3131,PAYLOAD,2023-01-16 04:49:32,15.08894098,0.000129,53.2153,344.896,89.5884,270.5256,0.0027177,0.00043294,0.0,0 STARLINK-3131,1 49427U 21104V   23016.20107057  .00043294  00000-0  27177-2 0  9996,2 49427  53.2153 344.8960 0001290  89.5884 270.5256 15.08894098 66343,6917.715,95.434,540.472,538.688,0.0
49427.0,STARLINK-3131,PAYLOAD,2023-01-16 14:21:50,15.08883316,7.58e-05,53.2157,343.1103,27.1656,332.9376,0.0016169,0.00025569,0.0,0 STARLINK-3131,1 49427U 21104V   23016.59850388  .00025569  00000-0  16169-2 0  9994,2 49427  53.2157 343.1103 0000758  27.1656 332.9376 15.08883316 65314,6917.7480000000005,95.435,540.137,539.089,0.0
49427.0,STARLINK-3131,PAYLOAD,2023-01-16 17:32:37,15.08800621,0.0001277,53.2151,342.5159,71.5914,288.5217,-0.0023326,-0.0003718,0.0,0 STARLINK-3131,1 49427U 21104V   23016.73099255 -.00037180  00000-0 -23326-2 0  9995,2 49427  53.2151 342.5159 0001277  71.5914 288.5217 15.08800621 66420,6918.001,95.44,540.749,538.982,0.0
49427.0,STARLINK-3131,PAYLOAD,2023-01-17 14:12:40,15.08826587,0.0001431999999999,53.2146,338.6508,68.0507,292.0638,0.002176,0.000345,0.0,0 STARLINK-3131,1 49427U 21104V   23017.59213735  .00034500  00000-0  21760-2 0  9992,2 49427  53.2146 338.6508 0001432  68.0507 292.0638 15.08826587 66550,6917.920999999999,95.438,540.7769999999999,538.7959999999999,0.0
49427.0,STARLINK-3131,PAYLOAD,2023-01-17 17:23:27,15.0883393,0.0001441999999999,53.2147,338.0561,69.7926,290.3221,0.0020865,0.00033069,0.0,0 STARLINK-3131,1 49427U 21104V   23017.72461828  .00033069  00000-0  20865-2 0  9999,2 49427  53.2147 338.0561 0001442  69.7926 290.3221 15.08833930 65488,6917.899,95.438,540.762,538.766,0.0
49427.0,STARLINK-3131,PAYLOAD,2023-01-18 14:03:27,15.08868517,0.0001639,53.2149,334.1892,72.2785,287.8386,0.0015347,0.0002423999999999,0.0,0 STARLINK-3131,1 49427U 21104V   23018.58573092  .00024240  00000-0  15347-2 0  9991,2 49427  53.2149 334.1892 0001639  72.2785 287.8386 15.08868517 66702,6917.793000000001,95.436,540.7919999999999,538.524,0.0
49427.0,STARLINK-3131,PAYLOAD,2023-01-19 05:57:18,15.08867603,0.0001274,53.2142,331.2159,71.7996,288.3135,0.0019433,0.00030799,0.0,0 STARLINK-3131,1 49427U 21104V   23019.24812566  .00030799  00000-0  19433-2 0  9993,2 49427  53.2142 331.2159 0001274  71.7996 288.3135 15.08867603 66806,6917.795999999999,95.436,540.5419999999999,538.78,0.0
49427.0,STARLINK-3131,PAYLOAD,2023-01-19 13:54:13,15.08858084,0.0001164,53.214,329.7286,97.0381,263.0743,0.00095953,0.00015023,0.0,0 STARLINK-3131,1 49427U 21104V   23019.57932623  .00015023  00000-0  95953-3 0  9991,2 49427  53.2140 329.7286 0001164  97.0381 263.0743 15.08858084 65766,6917.825,95.436,540.495,538.885,0.0
49427.0,STARLINK-3131,PAYLOAD,2023-01-20 13:45:01,15.08860448,0.0001274,53.2147,325.2672,81.3302,278.7834,0.0025193,0.00040057,0.0,0 STARLINK-3131,1 49427U 21104V   23020.57293672  .00040057  00000-0  25193-2 0  9990,2 49427  53.2147 325.2672 0001274  81.3302 278.7834 15.08860448 67004,6917.818,95.436,540.564,538.802,0.0
49427.0,STARLINK-3131,PAYLOAD,2023-01-21 05:38:52,15.08865796,0.0001338,53.2159,322.29400000000004,87.0006,273.11400000000003,0.0024819,0.00039461,0.0,0 STARLINK-3131,1 49427U 21104V   23021.23533540  .00039461  00000-0  24819-2 0  9996,2 49427  53.2159 322.2940 0001338  87.0006 273.1140 15.08865796 67108,6917.802,95.436,540.592,538.741,0.0
49427.0,STARLINK-3131,PAYLOAD,2023-01-21 13:35:48,15.08853237,0.0001743,53.2157,320.8082,74.514,285.6045,0.0014557,0.00022964,0.0,0 STARLINK-3131,1 49427U 21104V   23021.56653905  .00022964  00000-0  14557-2 0  9998,2 49427  53.2157 320.8082 0001743  74.5140 285.6045 15.08853237 67151,6917.84,95.437,540.911,538.499,0.0
49427.0,STARLINK-3131,PAYLOAD,2023-01-22 19:48:08,15.08855371,0.0001283,53.2173,315.1569,110.2224,249.8906,0.0019149,0.00030332,0.0,0 STARLINK-3131,1 49427U 21104V   23022.82509331  .00030332  00000-0  19149-2 0  9991,2 49427  53.2173 315.1569 0001283 110.2224 249.8906 15.08855371 67346,6917.8330000000005,95.437,540.586,538.811,0.0
49427.0,STARLINK-3131,PAYLOAD,2023-01-23 05:20:26,15.08845585,8.39e-05,53.2155,313.3718,85.9756,274.1332,0.00058419,9.023e-05,0.0,0 STARLINK-3131,1 49427U 21104V   23023.22253295  .00009023  00000-0  58419-3 0  9998,2 49427  53.2155 313.3718 0000839  85.9756 274.1332 15.08845585 67403,6917.863,95.437,540.309,539.148,0.0
49427.0,STARLINK-3131,PAYLOAD,2023-01-23 19:38:55,15.08840314,0.00015,53.2159,310.6973,79.1552,280.9609,0.0002492,3.68e-05,0.0,0 STARLINK-3131,1 49427U 21104V   23023.81869581  .00003680  00000-0  24920-3 0  9997,2 49427  53.2159 310.6973 0001500  79.1552 280.9609 15.08840314 67491,6917.879,95.438,540.7819999999999,538.707,0.0
49427.0,STARLINK-3131,PAYLOAD,2023-01-24 03:35:50,15.08852684,0.0001053,53.2162,309.2137,99.0738,261.0373,0.0006244,9.667e-05,0.0,0 STARLINK-3131,1 49427U 21104V   23024.14989337  .00009667  00000-0  62440-3 0  9996,2 49427  53.2162 309.2137 0001053  99.0738 261.0373 15.08852684 67548,6917.842,95.437,540.435,538.9780000000001,0.0
49427.0,STARLINK-3131,PAYLOAD,2023-01-25 03:26:38,15.08826611,0.0001154,53.2141,304.7479,80.5008,279.6115,-2.6123e-07,-2.92e-06,0.0,0 STARLINK-3131,1 49427U 21104V   23025.14350541 -.00000292  00000-0 -26123-6 0  9994,2 49427  53.2141 304.7479 0001154  80.5008 279.6115 15.08826611 67697,6917.920999999999,95.438,540.585,538.988,0.0
49427.0,STARLINK-3131,PAYLOAD,2023-01-25 11:23:34,15.08835135,0.0001094999999999,53.2145,303.2649,87.9167,272.195,9.5775e-05,1.237e-05,0.0,0 STARLINK-3131,1 49427U 21104V   23025.47470591  .00001237  00000-0  95775-4 0  9993,2 49427  53.2145 303.2649 0001095  87.9167 272.1950 15.08835135 66656,6917.895,95.438,540.518,539.003,0.0
49427.0,STARLINK-3131,PAYLOAD,2023-01-25 14:34:20,15.08837825,0.0001248,53.2153,302.66900000000004,83.1408,276.9726,0.00020256,2.937e-05,0.0,0 STARLINK-3131,1 49427U 21104V   23025.60718555  .00002937  00000-0  20256-3 0  9992,2 49427  53.2153 302.6690 0001248  83.1408 276.9726 15.08837825 66673,6917.887,95.438,540.615,538.889,0.0
49427.0,STARLINK-3131,PAYLOAD,2023-01-26 03:17:25,15.08887819,0.0001367,53.2138,300.2908,83.2874,276.8274,0.0023225,0.00036917,0.0,0 STARLINK-3131,1 49427U 21104V   23026.13709773  .00036917  00000-0  23225-2 0  9996,2 49427  53.2138 300.2908 0001367  83.2874 276.8274 15.08887819 67847,6917.734,95.435,540.545,538.654,0.0
49427.0,STARLINK-3131,PAYLOAD,2023-01-26 23:57:25,15.08870161,0.0001503,53.2141,296.4242,93.0771,267.0393,0.0019517,0.00030936,0.0,0 STARLINK-3131,1 49427U 21104V   23026.99821530  .00030936  00000-0  19517-2 0  9990,2 49427  53.2141 296.4242 0001503  93.0771 267.0393 15.08870161 67975,6917.7880000000005,95.436,540.693,538.613,0.0
49427.0,STARLINK-3131,PAYLOAD,2023-01-27 03:08:11,15.08863986,0.0001431999999999,53.2129,295.8301,96.9158,263.1997,0.0015377,0.00024285,0.0,0 STARLINK-3131,1 49427U 21104V   23027.13069430  .00024285  00000-0  15377-2 0  9990,2 49427  53.2129 295.8301 0001432  96.9158 263.1997 15.08863986 67998,6917.807,95.436,540.663,538.681,0.0
49427.0,STARLINK-3131,PAYLOAD,2023-01-28 02:58:59,15.08848917,0.0001217999999999,53.2134,291.3685,81.8346,278.2784,0.0013521,0.00021301,0.0,0 STARLINK-3131,1 49427U 21104V   23028.12429936  .00021301  00000-0  13521-2 0  9996,2 49427  53.2134 291.3685 0001218  81.8346 278.2784 15.08848917 68140,6917.853,95.437,540.561,538.876,0.0
49427.0,STARLINK-3131,PAYLOAD,2023-01-28 20:28:14,15.08837687,0.0001297,53.2141,288.0959,85.2627,274.8513,0.001056,0.00016557,0.0,0 STARLINK-3131,1 49427U 21104V   23028.85294401  .00016557  00000-0  10560-2 0  9990,2 49427  53.2141 288.0959 0001297  85.2627 274.8513 15.08837687 68258,6917.887,95.438,540.65,538.855,0.0
49427.0,STARLINK-3131,PAYLOAD,2023-01-29 02:49:46,15.08840766,0.0001382,53.2131,286.9067,83.787,276.328,0.00056188,8.666e-05,0.0,0 STARLINK-3131,1 49427U 21104V   23029.11790372  .00008666  00000-0  56188-3 0  9997,2 49427  53.2131 286.9067 0001382  83.7870 276.3280 15.08840766 68296,6917.878,95.438,540.699,538.787,0.0
49427.0,STARLINK-3131,PAYLOAD,2023-01-29 20:19:01,15.08845296,0.0001392,53.2135,283.6349,80.269,279.8459,0.00031859,4.787e-05,0.0,0 STARLINK-3131,1 49427U 21104V   23029.84654278  .00004787  00000-0  31859-3 0  9999,2 49427  53.2135 283.6349 0001392  80.2690 279.8459 15.08845296 67311,6917.864,95.437,540.692,538.766,0.0
49427.0,STARLINK-3131,PAYLOAD,2023-01-30 02:40:33,15.08851689,0.0001454,53.2139,282.4452,83.5665,276.5492,0.00042228,6.441e-05,0.0,0 STARLINK-3131,1 49427U 21104V   23030.11150008  .00006441  00000-0  42228-3 0  9994,2 49427  53.2139 282.4452 0001454  83.5665 276.5492 15.08851689 68443,6917.845,95.437,540.716,538.704,0.0
49427.0,STARLINK-3131,PAYLOAD,2023-01-30 21:45:11,15.08841099,0.0001524,53.215,278.8756,86.7409,273.3757,8.1763e-06,-1.58e-06,0.0,0 STARLINK-3131,1 49427U 21104V   23030.90638051 -.00000158  00000-0  81763-5 0  9999,2 49427  53.2150 278.8756 0001524  86.7409 273.3757 15.08841099 67476,6917.877,95.437,540.796,538.688,0.0
